{"type": "FeatureCollection", "features": [ {"type": "Feature", "properties": {"norad_id": 67101, "name": "STARLINK-36200", "group": "last-30-days", "lat": 38.06852934223174, "lon": -130.3620629546889, "alt_km": 331.7046792321853, "timestamp": "2025-12-25T16:53:13.375888+00:00", "meta": {"OBJECT_NAME": "STARLINK-36200", "OBJECT_ID": "2025-298AC", "EPOCH": "2025-12-25T06:00:04.000320", "MEAN_MOTION": 15.8067247, "ECCENTRICITY": 0.00039273, "INCLINATION": 69.9959, "RA_OF_ASC_NODE": 214.3523, "ARG_OF_PERICENTER": 270.0949, "MEAN_ANOMALY": 72.1475, "EPHEMERIS_TYPE": 0, "CLASSIFICATION_TYPE": "U", "NORAD_CAT_ID": 67101, "ELEMENT_SET_NO": 999, "REV_AT_EPOCH": 298, "BSTAR": -0.010488572, "MEAN_MOTION_DOT": -0.01777058, "MEAN_MOTION_DDOT": 0}, "tle": {"line1": "1 67101U 25298AC  25359.25004630 -.01777058  00000+0 -10489-1 0  9994", "line2": "2 67101  69.9959 214.3523 0003927 270.0949  72.1475 15.80672470  2981"}}, "geometry": {"type": "Point", "coordinates": [-130.3620629546889, 38.06852934223174]}}, {"type": "Feature", "properties": {"norad_id": 67102, "name": "STARLINK-36255", "group": "last-30-days", "lat": -41.93618012391048, "lon": 162.5895156797437, "alt_km": 326.60118456116925, "timestamp": "2025-12-25T16:53:13.375902+00:00", "meta": {"OBJECT_NAME": "STARLINK-36255", "OBJECT_ID": "2025-299A", "EPOCH": "2025-12-25T06:00:04.000320", "MEAN_MOTION": 15.83789323, "ECCENTRICITY": 0.00016744, "INCLINATION": 42.9968, "RA_OF_ASC_NODE": 240.0012, "ARG_OF_PERICENTER": 265.4843, "MEAN_ANOMALY": 308.034, "EPHEMERIS_TYPE": 0, "CLASSIFICATION_TYPE": "U", "NORAD_CAT_ID": 67102, "ELEMENT_SET_NO": 999, "REV_AT_EPOCH": 282, "BSTAR": -0.008937297, "MEAN_MOTION_DOT": -0.01802495, "MEAN_MOTION_DDOT": 0}, "tle": {"line1": "1 67102U 25299A   25359.25004630 -.01802495  00000+0 -89373-2 0  9999", "line2": "2 67102  42.9968 240.0012 0001674 265.4843 308.0340 15.83789323  2824"}}, "geometry": {"type": "Point", "coordinates": [162.5895156797437, -41.93618012391048]}}, {"type": "Feature", "properties": {"norad_id": 67103, "name": "STARLINK-36256", "group": "last-30-days", "lat": -41.68069035762427, "lon": 164.34902673780346, "alt_km": 326.57757182730893, "timestamp": "2025-12-25T16:53:13.375913+00:00", "meta": {"OBJECT_NAME": "STARLINK-36256", "OBJECT_ID": "2025-299B", "EPOCH": "2025-12-25T06:00:04.000320", "MEAN_MOTION": 15.83808858, "ECCENTRICITY": 0.00015741, "INCLINATION": 42.9967, "RA_OF_ASC_NODE": 239.9981, "ARG_OF_PERICENTER": 271.4901, "MEAN_ANOMALY": 303.3392, "EPHEMERIS_TYPE": 0, "CLASSIFICATION_TYPE": "U", "NORAD_CAT_ID": 67103, "ELEMENT_SET_NO": 999, "REV_AT_EPOCH": 282, "BSTAR": -0.008928518, "MEAN_MOTION_DOT": -0.01802337, "MEAN_MOTION_DDOT": 0}, "tle": {"line1": "1 67103U 25299B   25359.25004630 -.01802337  00000+0 -89285-2 0  9997", "line2": "2 67103  42.9967 239.9981 0001574 271.4901 303.3392 15.83808858  2827"}}, "geometry": {"type": "Point", "coordinates": [164.34902673780346, -41.68069035762427]}}, {"type": "Feature", "properties": {"norad_id": 67104, "name": "STARLINK-36258", "group": "last-30-days", "lat": -41.36215922260435, "lon": 166.30651812956305, "alt_km": 326.4748099522558, "timestamp": "2025-12-25T16:53:13.375923+00:00", "meta": {"OBJECT_NAME": "STARLINK-36258", "OBJECT_ID": "2025-299C", "EPOCH": "2025-12-25T06:00:04.000320", "MEAN_MOTION": 15.83822197, "ECCENTRICITY": 0.00016854, "INCLINATION": 42.9967, "RA_OF_ASC_NODE": 239.9942, "ARG_OF_PERICENTER": 268.0948, "MEAN_ANOMALY": 308.2149, "EPHEMERIS_TYPE": 0, "CLASSIFICATION_TYPE": "U", "NORAD_CAT_ID": 67104, "ELEMENT_SET_NO": 999, "REV_AT_EPOCH": 282, "BSTAR": -0.0089205427, "MEAN_MOTION_DOT": -0.01802044, "MEAN_MOTION_DDOT": 0}, "tle": {"line1": "1 67104U 25299C   25359.25004630 -.01802044  00000+0 -89205-2 0  9995", "line2": "2 67104  42.9967 239.9942 0001685 268.0948 308.2149 15.83822197  2827"}}, "geometry": {"type": "Point", "coordinates": [166.30651812956305, -41.36215922260435]}}, {"type": "Feature", "properties": {"norad_id": 67105, "name": "STARLINK-36261", "group": "last-30-days", "lat": -41.06553206953681, "lon": 167.9538824048976, "alt_km": 326.4450979495241, "timestamp": "2025-12-25T16:53:13.375935+00:00", "meta": {"OBJECT_NAME": "STARLINK-36261", "OBJECT_ID": "2025-299D", "EPOCH": "2025-12-25T06:00:04.000320", "MEAN_MOTION": 15.83843778, "ECCENTRICITY": 0.00016254, "INCLINATION": 42.9966, "RA_OF_ASC_NODE": 239.9911, "ARG_OF_PERICENTER": 266.9498, "MEAN_ANOMALY": 310.5979, "EPHEMERIS_TYPE": 0, "CLASSIFICATION_TYPE": "U", "NORAD_CAT_ID": 67105, "ELEMENT_SET_NO": 999, "REV_AT_EPOCH": 282, "BSTAR": -0.0088844674, "MEAN_MOTION_DOT": -0.01797224, "MEAN_MOTION_DDOT": 0}, "tle": {"line1": "1 67105U 25299D   25359.25004630 -.01797224  00000+0 -88845-2 0  9998", "line2": "2 67105  42.9966 239.9911 0001625 266.9498 310.5979 15.83843778  2829"}}, "geometry": {"type": "Point", "coordinates": [167.9538824048976, -41.06553206953681]}}, {"type": "Feature", "properties": {"norad_id": 67106, "name": "STARLINK-36259", "group": "last-30-days", "lat": -40.18926505315744, "lon": 172.1526297802642, "alt_km": 326.50356463655953, "timestamp": "2025-12-25T16:53:13.375945+00:00", "meta": {"OBJECT_NAME": "STARLINK-36259", "OBJECT_ID": "2025-299E", "EPOCH": "2025-12-25T06:00:04.000320", "MEAN_MOTION": 15.83856125, "ECCENTRICITY": 0.00015375, "INCLINATION": 42.9969, "RA_OF_ASC_NODE": 239.9829, "ARG_OF_PERICENTER": 261.1487, "MEAN_ANOMALY": 319.6869, "EPHEMERIS_TYPE": 0, "CLASSIFICATION_TYPE": "U", "NORAD_CAT_ID": 67106, "ELEMENT_SET_NO": 999, "REV_AT_EPOCH": 282, "BSTAR": -0.0088530265, "MEAN_MOTION_DOT": -0.01792485, "MEAN_MOTION_DDOT": 0}, "tle": {"line1": "1 67106U 25299E   25359.25004630 -.01792485  00000+0 -88530-2 0  9994", "line2": "2 67106  42.9969 239.9829 0001537 261.1487 319.6869 15.83856125  2826"}}, "geometry": {"type": "Point", "coordinates": [172.1526297802642, -40.18926505315744]}}, {"type": "Feature", "properties": {"norad_id": 67107, "name": "STARLINK-36196", "group": "last-30-days", "lat": -40.66786415462722, "lon": 169.9648703261214, "alt_km": 326.4501703742135, "timestamp": "2025-12-25T16:53:13.375955+00:00", "meta": {"OBJECT_NAME": "STARLINK-36196", "OBJECT_ID": "2025-299F", "EPOCH": "2025-12-25T06:00:04.000320", "MEAN_MOTION": 15.83859119, "ECCENTRICITY": 0.00015545, "INCLINATION": 42.9968, "RA_OF_ASC_NODE": 239.9874, "ARG_OF_PERICENTER": 269.4024, "MEAN_ANOMALY": 309.7062, "EPHEMERIS_TYPE": 0, "CLASSIFICATION_TYPE": "U", "NORAD_CAT_ID": 67107, "ELEMENT_SET_NO": 999, "REV_AT_EPOCH": 282, "BSTAR": -0.0089291305, "MEAN_MOTION_DOT": -0.01806274, "MEAN_MOTION_DDOT": 0}, "tle": {"line1": "1 67107U 25299F   25359.25004630 -.01806274  00000+0 -89291-2 0  9992", "line2": "2 67107  42.9968 239.9874 0001554 269.4024 309.7062 15.83859119  2824"}}, "geometry": {"type": "Point", "coordinates": [169.9648703261214, -40.66786415462722]}}, {"type": "Feature", "properties": {"norad_id": 67108, "name": "STARLINK-36208", "group": "last-30-days", "lat": -39.674505215701274, "lon": 174.2897901469757, "alt_km": 326.55490013802773, "timestamp": "2025-12-25T16:53:13.375965+00:00", "meta": {"OBJECT_NAME": "STARLINK-36208", "OBJECT_ID": "2025-299G", "EPOCH": "2025-12-25T06:00:04.000320", "MEAN_MOTION": 15.83867097, "ECCENTRICITY": 0.00014353, "INCLINATION": 42.9969, "RA_OF_ASC_NODE": 239.9785, "ARG_OF_PERICENTER": 259.9827, "MEAN_ANOMALY": 322.5606, "EPHEMERIS_TYPE": 0, "CLASSIFICATION_TYPE": "U", "NORAD_CAT_ID": 67108, "ELEMENT_SET_NO": 999, "REV_AT_EPOCH": 282, "BSTAR": -0.0088648973, "MEAN_MOTION_DOT": -0.01795344, "MEAN_MOTION_DDOT": 0}, "tle": {"line1": "1 67108U 25299G   25359.25004630 -.01795344  00000+0 -88649-2 0  9994", "line2": "2 67108  42.9969 239.9785 0001435 259.9827 322.5606 15.83867097  2821"}}, "geometry": {"type": "Point", "coordinates": [174.2897901469757, -39.674505215701274]}}, {"type": "Feature", "properties": {"norad_id": 67109, "name": "STARLINK-35764", "group": "last-30-days", "lat": -39.079105439765556, "lon": 176.54732023508967, "alt_km": 326.3963605648851, "timestamp": "2025-12-25T16:53:13.375979+00:00", "meta": {"OBJECT_NAME": "STARLINK-35764", "OBJECT_ID": "2025-299H", "EPOCH": "2025-12-25T06:00:04.000320", "MEAN_MOTION": 15.83872114, "ECCENTRICITY": 0.00015746, "INCLINATION": 42.9971, "RA_OF_ASC_NODE": 239.9739, "ARG_OF_PERICENTER": 265.0214, "MEAN_ANOMALY": 319.3684, "EPHEMERIS_TYPE": 0, "CLASSIFICATION_TYPE": "U", "NORAD_CAT_ID": 67109, "ELEMENT_SET_NO": 999, "REV_AT_EPOCH": 271, "BSTAR": -0.0088878331, "MEAN_MOTION_DOT": -0.01799938, "MEAN_MOTION_DDOT": 0}, "tle": {"line1": "1 67109U 25299H   25359.25004630 -.01799938  00000+0 -88878-2 0  9992", "line2": "2 67109  42.9971 239.9739 0001574 265.0214 319.3684 15.83872114  2710"}}, "geometry": {"type": "Point", "coordinates": [176.54732023508967, -39.079105439765556]}}, {"type": "Feature", "properties": {"norad_id": 67110, "name": "STARLINK-35781", "group": "last-30-days", "lat": -37.804839585004714, "lon": -179.19263966167156, "alt_km": 326.2915398265659, "timestamp": "2025-12-25T16:53:13.375989+00:00", "meta": {"OBJECT_NAME": "STARLINK-35781", "OBJECT_ID": "2025-299J", "EPOCH": "2025-12-25T06:00:04.000320", "MEAN_MOTION": 15.83882656, "ECCENTRICITY": 0.00016194, "INCLINATION": 42.9971, "RA_OF_ASC_NODE": 239.9649, "ARG_OF_PERICENTER": 267.7889, "MEAN_ANOMALY": 320.1695, "EPHEMERIS_TYPE": 0, "CLASSIFICATION_TYPE": "U", "NORAD_CAT_ID": 67110, "ELEMENT_SET_NO": 999, "REV_AT_EPOCH": 277, "BSTAR": -0.0089025911, "MEAN_MOTION_DOT": -0.01803414, "MEAN_MOTION_DDOT": 0}, "tle": {"line1": "1 67110U 25299J   25359.25004630 -.01803414  00000+0 -89026-2 0  9995", "line2": "2 67110  42.9971 239.9649 0001619 267.7889 320.1695 15.83882656  2779"}}, "geometry": {"type": "Point", "coordinates": [-179.19263966167156, -37.804839585004714]}}]}